APRIZESAT 7             
1 39416U 13066A   26068.92653767  .00001633  00000+0  16772-3 0  9994
2 39416  97.7595  23.6578 0035978 178.0186 182.1181 14.91283287666433
TELEOS-2                
1 56310U 23057C   26067.64596106  .00000863  00000+0  15043-4 0  9993
2 56310   9.9874 216.2411 0000803 295.2771  64.7359 14.96380118157711
